KUIPER-00074            
1 64821U 25151F   25286.00002315 -.00018087  00000+0 -16472-2 0  9996
2 64821  51.8924 224.3325 0013147 130.2934 195.6322 14.94227355  5624
KUIPER-00075            
1 64822U 25151G   25285.11297377  .00063666  00000+0  16305-2 0  9998
2 64822  51.8764 223.1654 0006831  92.6110 267.5659 15.38770209 13506
KUIPER-00076            
1 64823U 25151H   25286.00002315 -.01550227  00000+0 -17857+0 0  9991
2 64823  51.8954 226.3421 0005569 135.4286  53.7025 14.88731581  5802
KUIPER-00077            
1 64824U 25151J   25285.26473645  .00007986  00000+0  10750-2 0  9991
2 64824  51.9019 234.4125 0006237  76.1926 283.9730 14.79937649 13365
KUIPER-00078            
1 64825U 25151K   25286.00002315 -.00036355  00000+0 -46782-2 0  9995
2 64825  51.8986 228.6649 0006725 154.1457 328.7283 14.80687296  5759
KUIPER-00079            
1 64826U 25151L   25285.84061301  .00007923  00000+0  10663-2 0  9993
2 64826  51.8984 234.0620 0012859 108.8137 251.4221 14.79920729 14612
KUIPER-00080            
1 64827U 25151M   25285.56573028  .00007940  00000+0  10685-2 0  9990
2 64827  51.8984 235.5762 0005886 121.8153 238.3384 14.79961906 13379
KUIPER-00082            
1 64828U 25151N   25286.00002315 -.02107222  00000+0 -15404+0 0  9996
2 64828  51.8901 222.7189 0006070 130.4870  37.0980 15.06672798  5419
KUIPER-00083            
1 64829U 25151P   25286.00002315 -.00024042  00000+0 -31283-2 0  9999
2 64829  51.8996 228.6678 0011157 116.4632 188.5532 14.79982019  3427
KUIPER-00084            
1 64830U 25151Q   25285.59405429  .00008412  00000+0  11471-2 0  9995
2 64830  51.9013 240.4465 0011742  91.3591 268.8717 14.79303591 13308
KUIPER-00085            
1 64831U 25151R   25286.00002315 -.01605093  00000+0 -12491+0 0  9991
2 64831  51.8927 222.8632 0010133 110.4713 243.7875 15.03948288  5634
KUIPER-00086            
1 64832U 25151S   25285.56852745  .00005106  00000+0  69772-3 0  9996
2 64832  51.9014 233.0684 0011895 111.0194 249.2042 14.79945639 13400
KUIPER-00087            
1 64833U 25151T   25286.00002315 -.01176821  00000+0 -50191-1 0  9996
2 64833  51.8802 219.8450 0005678 114.0318  12.6001 15.25162741  5439
KUIPER-00089            
1 64834U 25151U   25286.00002315 -.00004986  00000+0 -26344-3 0  9993
2 64834  51.8895 221.5379 0003575 116.1198 268.8284 15.12839121  4666
KUIPER-00090            
1 64835U 25151V   25286.00002315  .00002577  00000+0  10376-3 0  9994
2 64835  51.8792 219.7415 0008018 123.6123  24.4331 15.28651671  3893
KUIPER-00091            
1 64836U 25151W   25286.00002315  .00001066  00000+0  68897-4 0  9999
2 64836  51.8801 220.6832 0008466 122.4286 252.3014 15.17070875  3724
KUIPER-00092            
1 64837U 25151X   25286.00002315 -.00905197  00000+0 -84191-1 0  9992
2 64837  51.8917 224.3679 0008463 103.2313 335.1435 14.96489809  1720
KUIPER-00093            
1 64838U 25151Y   25286.00002315 -.00080987  00000+0 -87642-2 0  9999
2 64838  51.8959 226.4072 0015311 117.6070 247.7690 14.88133164  1391
KUIPER-00094            
1 64839U 25151Z   25286.00002315 -.00466180  00000+0 -28767-1 0  9995
2 64839  51.8880 221.6450 0007757 121.3018 126.3472 15.11730904  4318
KUIPER-00081            
1 65132U 25171A   25285.89731364  .00047604  00000+0  12684-2 0  9999
2 65132  51.8746 103.5025 0004986 344.1886  15.8945 15.37690718 10849
KUIPER-00088            
1 65133U 25171B   25286.00002315 -.00046806  00000+0 -20460-2 0  9997
2 65133  51.8845 103.9329 0006927 331.9880 149.1533 15.21558571  4723
KUIPER-00095            
1 65134U 25171C   25285.92330519  .00037486  00000+0  10251-2 0  9997
2 65134  51.8733 103.6660 0004141  13.7683 346.3416 15.36999104 10845
KUIPER-00096            
1 65135U 25171D   25285.91012276  .00028355  00000+0  76956-3 0  9994
2 65135  51.8738 103.5785 0004799 356.3362   3.7589 15.37372282 10845
KUIPER-00097            
1 65136U 25171E   25286.00002315  .00073900  00000+0  24002-2 0  9999
2 65136  51.8761 103.3846 0004957   6.1369   3.2257 15.31251032  4024
KUIPER-00098            
1 65137U 25171F   25286.00002315 -.00334492  00000+0 -12797-1 0  9995
2 65137  51.8782 103.3957 0006125 354.5041  26.8854 15.27493649  4703
KUIPER-00099            
1 65138U 25171G   25285.90111194  .00038459  00000+0  10264-2 0  9990
2 65138  51.8753 103.5311 0005568 341.8058  18.2729 15.37734783 10830
KUIPER-00100            
1 65139U 25171H   25285.84488758  .00059512  00000+0  15909-2 0  9991
2 65139  51.8760 103.8930 0004562 352.4673   7.6245 15.37493411 10827
KUIPER-00102            
1 65140U 25171J   25285.92374242  .00031320  00000+0  85761-3 0  9995
2 65140  51.8739 103.6653 0004327   5.0751 355.0279 15.37046327 10830
KUIPER-00103            
1 65141U 25171K   25286.00002315 -.00880684  00000+0 -58853-1 0  9992
2 65141  51.9053 105.8218 0005613   7.4154 268.0778 15.09257603  5835
KUIPER-00104            
1 65142U 25171L   25285.91344966  .00083225  00000+0  22234-2 0  9992
2 65142  51.8752 103.6145 0003901 353.0621   7.0311 15.37359619 10834
KUIPER-00105            
1 65143U 25171M   25286.00002315 -.00590370  00000+0 -28788-1 0  9998
2 65143  51.8799 104.0597 0008425 339.2475  32.3393 15.20119706  4096
KUIPER-00106            
1 65144U 25171N   25286.00002315  .00022329  00000+0  14744-2 0  9999
2 65144  51.8891 106.0160 0007393 328.4460 129.8616 15.07320982  5259
KUIPER-00107            
1 65145U 25171P   25285.90895285  .00027350  00000+0  74313-3 0  9992
2 65145  51.8745 103.5833 0004391 356.3740   3.7214 15.37358150 10849
KUIPER-00108            
1 65146U 25171Q   25286.00002315 -.00937714  00000+0 -30145-1 0  9998
2 65146  51.8761 103.3570 0005399   3.8855  37.5893 15.34524281  5595
KUIPER-00109            
1 65147U 25171R   25285.90019698  .00063534  00000+0  16825-2 0  9997
2 65147  51.8755 103.5187 0005904 334.9792  25.0908 15.37748636 10832
KUIPER-00110            
1 65148U 25171S   25286.00002315  .00047806  00000+0  25388-2 0  9996
2 65148  51.8825 104.9592 0009119 336.0569 303.8973 15.14815639  5323
KUIPER-00111            
1 65149U 25171T   25286.00002315 -.01914418  00000+0 -16085+0 0  9993
2 65149  51.8908 107.2686 0007163 352.9937 294.6448 15.01741327  4375
KUIPER-00112            
1 65150U 25171U   25285.86050575  .00060289  00000+0  16305-2 0  9992
2 65150  51.8746 104.0026 0005155  15.7981 344.3165 15.37124585 10828
KUIPER-00114            
1 65151U 25171V   25286.00002315  .00005024  00000+0  52232-3 0  9995
2 65151  51.8951 109.1512 0007887 342.0297 325.0091 14.91365740  4290
KUIPER-00115            
1 65152U 25171W   25286.00002315 -.00759268  00000+0 -41593-1 0  9990
2 65152  51.8877 104.7847 0008622   4.1810  58.2295 15.16325065  5549
KUIPER-00116            
1 65153U 25171X   25286.00002315  .00048889  00000+0  39462-2 0  9992
2 65153  51.8937 107.4493 0007841 327.9383 131.0810 14.99350887  5102
KUIPER-00118            
1 65154U 25171Y   25286.00002315  .00045893  00000+0  45217-2 0  9990
2 65154  51.8943 109.0488 0004937 350.8723 139.9454 14.91581892  5136
KUIPER-00119            
1 65155U 25171Z   25286.00002315 -.00784061  00000+0 -32447-1 0  9990
2 65155  51.8808 103.4853 0006187 321.6055 344.7640 15.25939904  5697
KUIPER-00120            
1 65762U 25217A   25285.70165372  .00027581  00000+0  82157-3 0  9994
2 65762  51.8632 359.6554 0009779 175.1791 184.9290 15.34440497  2650
KUIPER-00132            
1 65763U 25217B   25285.69199106  .00022953  00000+0  66741-3 0  9994
2 65763  51.8655 359.5954 0006514 161.1407 198.9822 15.35333175  2653
KUIPER-00133            
1 65764U 25217C   25285.69922155  .00025023  00000+0  74309-3 0  9993
2 65764  51.8656 359.6420 0008429 170.9293 189.1847 15.34604679  2650
KUIPER-00139            
1 65765U 25217D   25285.69417102  .00024422  00000+0  71391-3 0  9995
2 65765  51.8678 359.6111 0007119 165.0278 195.0919 15.35124458  2654
KUIPER-00142            
1 65766U 25217E   25285.94122191  .00055517  00000+0  15447-2 0  9993
2 65766  51.8718 358.2715 0003321 129.9394 230.1884 15.36284416  2692
KUIPER-00145            
1 65767U 25217F   25285.68299224  .00028012  00000+0  79173-3 0  9994
2 65767  51.8731 359.5392 0004122 137.6902 222.4403 15.36118543  2658
KUIPER-00147            
1 65768U 25217G   25285.69317177  .00043808  00000+0  12645-2 0  9994
2 65768  51.8669 359.6044 0007004 156.8305 203.2998 15.35226902  2650
KUIPER-00148            
1 65769U 25217H   25285.63583290  .00039487  00000+0  11679-2 0  9994
2 65769  51.8616 359.9637 0009784 170.7652 189.3515 15.34484847  2642
KUIPER-00150            
1 65770U 25217J   25285.69953124  .00027492  00000+0  81426-3 0  9990
2 65770  51.8603 359.6386 0009141 172.7281 187.3839 15.34628413  2652
KUIPER-00151            
1 65771U 25217K   25285.68551792  .00028245  00000+0  80345-3 0  9991
2 65771  51.8710 359.5564 0005489 143.0150 217.1215 15.35907672  2654
KUIPER-00152            
1 65772U 25217L   25285.67278842  .00035822  00000+0  97856-3 0  9997
2 65772  51.8751 359.4664 0002193  74.6033 285.5196 15.37058738  2657
KUIPER-00153            
1 65773U 25217M   25285.69731920  .00023960  00000+0  70732-3 0  9995
2 65773  51.8642 359.6285 0008504 166.2366 193.8853 15.34816634  2652
KUIPER-00155            
1 65774U 25217N   25285.68900888  .00025294  00000+0  72851-3 0  9992
2 65774  51.8678 359.5780 0005702 153.9602 206.1672 15.35578089  2651
KUIPER-00156            
1 65775U 25217P   25285.93633015  .00047920  00000+0  13157-2 0  9999
2 65775  51.8748 358.2353 0002374 104.1845 255.9405 15.36767189  2693
KUIPER-00158            
1 65776U 25217Q   25285.68658914  .00024753  00000+0  70811-3 0  9997
2 65776  51.8717 359.5632 0005298 148.9006 211.2294 15.35805766  2657
KUIPER-00163            
1 65777U 25217R   25285.69575530  .00024969  00000+0  73291-3 0  9995
2 65777  51.8631 359.6175 0007990 167.0035 193.1158 15.34975144  2655
